STARLINK-31958          
1 59924U 24106C   26068.05582930  .00000854  00000+0  40548-4 0  9997
2 59924  43.0014 321.5884 0002831 258.5288 101.5246 15.27599767100598
FLOCK 4G-29             
1 62642U 25009AK  26068.81464037  .00011147  00000+0  41831-3 0  9994
2 62642  97.4058 151.3683 0001366 288.0502  72.0588 15.27382318 63721
